TIANMU-1 10             
1 57402U 23101D   26073.60881642  .00010032  00000+0  35516-3 0  9996
2 57402  97.2748 126.6474 0007153 120.6911 239.5036 15.29301381147185
FENGYUN 3F              
1 57490U 23111A   26073.62061910  .00000062  00000+0  49859-4 0  9992
2 57490  98.6914 145.3631 0001160  77.5908 282.5399 14.19920715135445
ARKTIKA-M 2             
1 58584U 23198A   26064.07652728  .00000150  00000+0  00000+0 0  9992
2 58584  63.2186 165.9003 6877723 267.7621  18.8474  2.00612038 16239
TIANMU-1 11             
1 58645U 23205A   26073.59317392  .00008694  00000+0  34095-3 0  9997
2 58645  97.3546  96.6643 0008426 350.9815   9.1271 15.25956243123096
TIANMU-1 12             
1 58646U 23205B   26073.62583054  .00008478  00000+0  33344-3 0  9998
2 58646  97.3533  96.4742 0006173 335.2338  24.8603 15.25884206123085
TIANMU-1 13             
1 58647U 23205C   26073.59098865  .00008915  00000+0  34994-3 0  9994
2 58647  97.3561  96.6809 0005980 312.5203  47.5530 15.25935496123075
TIANMU-1 14             
1 58648U 23205D   26073.57563481  .00008406  00000+0  33032-3 0  9991
2 58648  97.3496  95.9302 0006840 317.0334  43.0369 15.25910137123070
TIANMU-1 19             
1 58660U 23208A   26073.56994887  .00013102  00000+0  45413-3 0  9990
2 58660  97.4384 189.5625 0003763 294.5314  65.5534 15.29949639122858
TIANMU-1 20             
1 58661U 23208B   26073.61583485  .00013222  00000+0  44163-3 0  9999
2 58661  97.4325 190.1471 0006025 304.4151  55.6520 15.31138217122945
TIANMU-1 21             
1 58662U 23208C   26073.60786916  .00015699  00000+0  49168-3 0  9993
2 58662  97.4379 192.4324 0005832 297.6115  62.4534 15.33168168123060
TIANMU-1 22             
1 58663U 23208D   26073.58881890  .00012565  00000+0  44092-3 0  9998
2 58663  97.4380 189.5892 0002760 332.1785  27.9307 15.29558852122864
TIANMU-1 15             
1 58700U 24004A   26073.63894383  .00008838  00000+0  34720-3 0  9997
2 58700  97.4672 259.8707 0006248 331.3328  28.7566 15.25916165121355
TIANMU-1 16             
1 58701U 24004B   26073.62231959  .00008878  00000+0  34846-3 0  9994
2 58701  97.4614 259.1737 0004789 337.9939  22.1093 15.25951077121350
TIANMU-1 17             
1 58702U 24004C   26073.60453749  .00009309  00000+0  36484-3 0  9996
2 58702  97.4647 259.6121 0004063 341.8188  18.2904 15.25986265121347
TIANMU-1 18             
1 58703U 24004D   26073.65545412  .00009233  00000+0  36251-3 0  9999
2 58703  97.4664 259.8751 0003430 343.4704  16.6421 15.25932865121351
INSAT-3DS               
1 58990U 24033A   26073.58475552 -.00000156  00000+0  00000+0 0  9993
2 58990   0.0290 242.7645 0002142 125.7347  96.2735  1.00271883 46127
METEOR-M2 4             
1 59051U 24039A   26073.64345834  .00000026  00000+0  31231-4 0  9994
2 59051  98.6911  34.1817 0008202  84.0351 276.1761 14.22418110105823
