[{"OBJECT_NAME":"TIANMU-1 10","OBJECT_ID":"2023-101D","EPOCH":"2026-03-14T14:36:41.738688","MEAN_MOTION":15.29301381,"ECCENTRICITY":0.00071536,"INCLINATION":97.2748,"RA_OF_ASC_NODE":126.6474,"ARG_OF_PERICENTER":120.6911,"MEAN_ANOMALY":239.5036,"EPHEMERIS_TYPE":0,"CLASSIFICATION_TYPE":"U","NORAD_CAT_ID":57402,"ELEMENT_SET_NO":999,"REV_AT_EPOCH":14718,"BSTAR":0.00035516074,"MEAN_MOTION_DOT":0.00010032,"MEAN_MOTION_DDOT":0},{"OBJECT_NAME":"FENGYUN 3F","OBJECT_ID":"2023-111A","EPOCH":"2026-03-14T14:53:41.490240","MEAN_MOTION":14.19920715,"ECCENTRICITY":0.00011607,"INCLINATION":98.6914,"RA_OF_ASC_NODE":145.3631,"ARG_OF_PERICENTER":77.5908,"MEAN_ANOMALY":282.5399,"EPHEMERIS_TYPE":0,"CLASSIFICATION_TYPE":"U","NORAD_CAT_ID":57490,"ELEMENT_SET_NO":999,"REV_AT_EPOCH":13544,"BSTAR":4.9858525e-5,"MEAN_MOTION_DOT":6.2e-7,"MEAN_MOTION_DDOT":0},{"OBJECT_NAME":"ARKTIKA-M 2","OBJECT_ID":"2023-198A","EPOCH":"2026-03-05T01:50:11.956992","MEAN_MOTION":2.00612038,"ECCENTRICITY":0.68777232,"INCLINATION":63.2186,"RA_OF_ASC_NODE":165.9003,"ARG_OF_PERICENTER":267.7621,"MEAN_ANOMALY":18.8474,"EPHEMERIS_TYPE":0,"CLASSIFICATION_TYPE":"U","NORAD_CAT_ID":58584,"ELEMENT_SET_NO":999,"REV_AT_EPOCH":1623,"BSTAR":0,"MEAN_MOTION_DOT":1.5e-6,"MEAN_MOTION_DDOT":0},{"OBJECT_NAME":"TIANMU-1 11","OBJECT_ID":"2023-205A","EPOCH":"2026-03-14T14:14:10.226688","MEAN_MOTION":15.25956243,"ECCENTRICITY":0.0008426,"INCLINATION":97.3546,"RA_OF_ASC_NODE":96.6643,"ARG_OF_PERICENTER":350.9815,"MEAN_ANOMALY":9.1271,"EPHEMERIS_TYPE":0,"CLASSIFICATION_TYPE":"U","NORAD_CAT_ID":58645,"ELEMENT_SET_NO":999,"REV_AT_EPOCH":12309,"BSTAR":0.00034095199,"MEAN_MOTION_DOT":8.694e-5,"MEAN_MOTION_DDOT":0},{"OBJECT_NAME":"TIANMU-1 12","OBJECT_ID":"2023-205B","EPOCH":"2026-03-14T15:01:11.758656","MEAN_MOTION":15.25884206,"ECCENTRICITY":0.00061733,"INCLINATION":97.3533,"RA_OF_ASC_NODE":96.4742,"ARG_OF_PERICENTER":335.2338,"MEAN_ANOMALY":24.8603,"EPHEMERIS_TYPE":0,"CLASSIFICATION_TYPE":"U","NORAD_CAT_ID":58646,"ELEMENT_SET_NO":999,"REV_AT_EPOCH":12308,"BSTAR":0.00033344316,"MEAN_MOTION_DOT":8.478e-5,"MEAN_MOTION_DDOT":0},{"OBJECT_NAME":"TIANMU-1 13","OBJECT_ID":"2023-205C","EPOCH":"2026-03-14T14:11:01.419360","MEAN_MOTION":15.25935496,"ECCENTRICITY":0.00059806,"INCLINATION":97.3561,"RA_OF_ASC_NODE":96.6809,"ARG_OF_PERICENTER":312.5203,"MEAN_ANOMALY":47.553,"EPHEMERIS_TYPE":0,"CLASSIFICATION_TYPE":"U","NORAD_CAT_ID":58647,"ELEMENT_SET_NO":999,"REV_AT_EPOCH":12307,"BSTAR":0.00034993866,"MEAN_MOTION_DOT":8.915e-5,"MEAN_MOTION_DDOT":0},{"OBJECT_NAME":"TIANMU-1 14","OBJECT_ID":"2023-205D","EPOCH":"2026-03-14T13:48:54.847584","MEAN_MOTION":15.25910137,"ECCENTRICITY":0.00068401,"INCLINATION":97.3496,"RA_OF_ASC_NODE":95.9302,"ARG_OF_PERICENTER":317.0334,"MEAN_ANOMALY":43.0369,"EPHEMERIS_TYPE":0,"CLASSIFICATION_TYPE":"U","NORAD_CAT_ID":58648,"ELEMENT_SET_NO":999,"REV_AT_EPOCH":12307,"BSTAR":0.00033032265,"MEAN_MOTION_DOT":8.406e-5,"MEAN_MOTION_DDOT":0},{"OBJECT_NAME":"TIANMU-1 19","OBJECT_ID":"2023-208A","EPOCH":"2026-03-14T13:40:43.582368","MEAN_MOTION":15.29949639,"ECCENTRICITY":0.00037639,"INCLINATION":97.4384,"RA_OF_ASC_NODE":189.5625,"ARG_OF_PERICENTER":294.5314,"MEAN_ANOMALY":65.5534,"EPHEMERIS_TYPE":0,"CLASSIFICATION_TYPE":"U","NORAD_CAT_ID":58660,"ELEMENT_SET_NO":999,"REV_AT_EPOCH":12285,"BSTAR":0.00045413009,"MEAN_MOTION_DOT":0.00013102,"MEAN_MOTION_DDOT":0},{"OBJECT_NAME":"TIANMU-1 20","OBJECT_ID":"2023-208B","EPOCH":"2026-03-14T14:46:48.131040","MEAN_MOTION":15.31138217,"ECCENTRICITY":0.00060252,"INCLINATION":97.4325,"RA_OF_ASC_NODE":190.1471,"ARG_OF_PERICENTER":304.4151,"MEAN_ANOMALY":55.652,"EPHEMERIS_TYPE":0,"CLASSIFICATION_TYPE":"U","NORAD_CAT_ID":58661,"ELEMENT_SET_NO":999,"REV_AT_EPOCH":12294,"BSTAR":0.00044163371,"MEAN_MOTION_DOT":0.00013222,"MEAN_MOTION_DDOT":0},{"OBJECT_NAME":"TIANMU-1 21","OBJECT_ID":"2023-208C","EPOCH":"2026-03-14T14:35:19.895424","MEAN_MOTION":15.33168168,"ECCENTRICITY":0.00058327,"INCLINATION":97.4379,"RA_OF_ASC_NODE":192.4324,"ARG_OF_PERICENTER":297.6115,"MEAN_ANOMALY":62.4534,"EPHEMERIS_TYPE":0,"CLASSIFICATION_TYPE":"U","NORAD_CAT_ID":58662,"ELEMENT_SET_NO":999,"REV_AT_EPOCH":12306,"BSTAR":0.00049168229,"MEAN_MOTION_DOT":0.00015699,"MEAN_MOTION_DDOT":0},{"OBJECT_NAME":"TIANMU-1 22","OBJECT_ID":"2023-208D","EPOCH":"2026-03-14T14:07:53.952960","MEAN_MOTION":15.29558852,"ECCENTRICITY":0.000276,"INCLINATION":97.438,"RA_OF_ASC_NODE":189.5892,"ARG_OF_PERICENTER":332.1785,"MEAN_ANOMALY":27.9307,"EPHEMERIS_TYPE":0,"CLASSIFICATION_TYPE":"U","NORAD_CAT_ID":58663,"ELEMENT_SET_NO":999,"REV_AT_EPOCH":12286,"BSTAR":0.00044092034,"MEAN_MOTION_DOT":0.00012565,"MEAN_MOTION_DDOT":0},{"OBJECT_NAME":"TIANMU-1 15","OBJECT_ID":"2024-004A","EPOCH":"2026-03-14T15:20:04.746912","MEAN_MOTION":15.25916165,"ECCENTRICITY":0.00062487,"INCLINATION":97.4672,"RA_OF_ASC_NODE":259.8707,"ARG_OF_PERICENTER":331.3328,"MEAN_ANOMALY":28.7566,"EPHEMERIS_TYPE":0,"CLASSIFICATION_TYPE":"U","NORAD_CAT_ID":58700,"ELEMENT_SET_NO":999,"REV_AT_EPOCH":12135,"BSTAR":0.00034719669,"MEAN_MOTION_DOT":8.838e-5,"MEAN_MOTION_DDOT":0},{"OBJECT_NAME":"TIANMU-1 16","OBJECT_ID":"2024-004B","EPOCH":"2026-03-14T14:56:08.412576","MEAN_MOTION":15.25951077,"ECCENTRICITY":0.0004789,"INCLINATION":97.4614,"RA_OF_ASC_NODE":259.1737,"ARG_OF_PERICENTER":337.9939,"MEAN_ANOMALY":22.1093,"EPHEMERIS_TYPE":0,"CLASSIFICATION_TYPE":"U","NORAD_CAT_ID":58701,"ELEMENT_SET_NO":999,"REV_AT_EPOCH":12135,"BSTAR":0.00034846116,"MEAN_MOTION_DOT":8.878e-5,"MEAN_MOTION_DDOT":0},{"OBJECT_NAME":"TIANMU-1 17","OBJECT_ID":"2024-004C","EPOCH":"2026-03-14T14:30:32.039136","MEAN_MOTION":15.25986265,"ECCENTRICITY":0.00040635,"INCLINATION":97.4647,"RA_OF_ASC_NODE":259.6121,"ARG_OF_PERICENTER":341.8188,"MEAN_ANOMALY":18.2904,"EPHEMERIS_TYPE":0,"CLASSIFICATION_TYPE":"U","NORAD_CAT_ID":58702,"ELEMENT_SET_NO":999,"REV_AT_EPOCH":12134,"BSTAR":0.00036483918,"MEAN_MOTION_DOT":9.309e-5,"MEAN_MOTION_DDOT":0},{"OBJECT_NAME":"TIANMU-1 18","OBJECT_ID":"2024-004D","EPOCH":"2026-03-14T15:43:51.235968","MEAN_MOTION":15.25932865,"ECCENTRICITY":0.00034305,"INCLINATION":97.4664,"RA_OF_ASC_NODE":259.8751,"ARG_OF_PERICENTER":343.4704,"MEAN_ANOMALY":16.6421,"EPHEMERIS_TYPE":0,"CLASSIFICATION_TYPE":"U","NORAD_CAT_ID":58703,"ELEMENT_SET_NO":999,"REV_AT_EPOCH":12135,"BSTAR":0.00036250745,"MEAN_MOTION_DOT":9.233e-5,"MEAN_MOTION_DDOT":0},{"OBJECT_NAME":"INSAT-3DS","OBJECT_ID":"2024-033A","EPOCH":"2026-03-14T14:02:02.876928","MEAN_MOTION":1.00271883,"ECCENTRICITY":0.00021421,"INCLINATION":0.029,"RA_OF_ASC_NODE":242.7645,"ARG_OF_PERICENTER":125.7347,"MEAN_ANOMALY":96.2735,"EPHEMERIS_TYPE":0,"CLASSIFICATION_TYPE":"U","NORAD_CAT_ID":58990,"ELEMENT_SET_NO":999,"REV_AT_EPOCH":4612,"BSTAR":0,"MEAN_MOTION_DOT":-1.56e-6,"MEAN_MOTION_DDOT":0},{"OBJECT_NAME":"METEOR-M2 4","OBJECT_ID":"2024-039A","EPOCH":"2026-03-14T15:26:34.800576","MEAN_MOTION":14.2241811,"ECCENTRICITY":0.00082022,"INCLINATION":98.6911,"RA_OF_ASC_NODE":34.1817,"ARG_OF_PERICENTER":84.0351,"MEAN_ANOMALY":276.1761,"EPHEMERIS_TYPE":0,"CLASSIFICATION_TYPE":"U","NORAD_CAT_ID":59051,"ELEMENT_SET_NO":999,"REV_AT_EPOCH":10582,"BSTAR":3.1230711e-5,"MEAN_MOTION_DOT":2.6e-7,"MEAN_MOTION_DDOT":0}]
